[
  {
    "name": "ONEWEB-0702",
    "noradId": "61608",
    "line1": "1 61608U 24188Q   26149.17424993  .00000515  00000+0  14168-2 0  9997",
    "line2": "2 61608  87.8925  24.7670 0001146 114.7902 245.3346 13.11418496 81996"
  },
  {
    "name": "ONEWEB-0704",
    "noradId": "61609",
    "line1": "1 61609U 24188R   26149.13278815  .00000341  00000+0  94009-3 0  9994",
    "line2": "2 61609  87.8872  40.0463 0001321 117.9204 242.2057 13.10377118 80790"
  },
  {
    "name": "ONEWEB-0705",
    "noradId": "61610",
    "line1": "1 61610U 24188S   26149.13775602  .00000564  00000+0  15801-2 0  9991",
    "line2": "2 61610  87.8862  40.0512 0002190 110.4380 249.6983 13.10377575 72960"
  },
  {
    "name": "ONEWEB-0706",
    "noradId": "61611",
    "line1": "1 61611U 24188T   26149.19916713 -.00000204  00000+0 -62007-3 0  9992",
    "line2": "2 61611  87.8862  40.0448 0001530 100.1290 260.0010 13.10377190 80894"
  },
  {
    "name": "ONEWEB-0707",
    "noradId": "61612",
    "line1": "1 61612U 24188U   26149.20581368  .00000144  00000+0  37704-3 0  9996",
    "line2": "2 61612  87.8864  40.0368 0001462  98.6825 261.4468 13.10377845 80830"
  },
  {
    "name": "ONEWEB-0708",
    "noradId": "61613",
    "line1": "1 61613U 24188V   26149.14773122  .00000686  00000+0  19291-2 0  9992",
    "line2": "2 61613  87.8850  40.0685 0002198  92.2289 267.9090 13.10373808 80803"
  }
]